#dP2021  2  7  0  0  0.00000000      96 __u+U ITR00 FIT  IAC
## 2144      0.00000000   900.00000000 59252 0.0000000000000
+  125   C01C02C03C04C05C07C08C09C10C11C12C13C14C16C19C20C21
+        C22C23C24C25C26C27C28C29C30C32C33C34C35C36C37C38C39
+        C40C41C42C43C44C45C46C60E01E02E03E04E05E07E08E09E11
+        E12E13E14E15E18E19E21E24E25E26E27E30E31E33E36G01G02
+        G03G04G05G06G07G08G09G10G11G12G13G14G15G16G17G18G19
+        G20G21G22G23G24G25G26G27G28G29G30G31G32J01J02J03J07
+        R01R02R03R04R05R06R07R08R10R11R12R13R14R15R16R17R18
+        R19R20R21R22R23R24  0  0  0  0  0  0  0  0  0  0  0
++        13 13 13 13 13  8  9  8  8  8  8  8  8  8  7  8  8
++         8  8  8  8  8  8  8  8  8  8  8  8  8  8  9  9  9
++         9  9  9  9  8  9  9  0  4  4  5  4  5  4  4  5  4
++         4  5  4  5  4  4  5  5  4  4  4  4  4  4  5  3  4
++         3  4  4  4  4  3  4  4  4  4  4  4  4  4  4  4  4
++         4  4  4  4  3  4  4  4  4  4  4  4  4  9  8  8 14
++         6  5  6  6  6 13  5  5 13  8  6  6  6  6  6  6  6
++         6  7  6  7 13  6  0  0  0  0  0  0  0  0  0  0  0
%c M  cc GPS ccc cccc cccc cccc cccc ccccc ccccc ccccc ccccc
%c cc cc ccc ccc cccc cccc cccc cccc ccccc ccccc ccccc ccccc
%f  0.0000000  0.000000000  0.00000000000  0.000000000000000
%f  0.0000000  0.000000000  0.00000000000  0.000000000000000
%i    0    0    0    0      0      0      0      0         0
%i    0    0    0    0      0      0      0      0         0
/* INFORMATION & ANALYSIS CENTER (IAC)            RAPID DATA
/* S/V CLOCKS ARE ALIGNED TO GNSS TIME                      
/* G:C1WC2W R:C1PC2P E:C1XC5X C:C2IC6I J:C1CC2S             
/* PCV:IGS14_2134 OL/AL:FES2004  NONE     YN ORB:CoN CLK:CoN
*  2021 02 07  1 45  0.00000000
PC01 -34376.631754  24414.747610    -37.415125   -735.763504
PC02   4522.722653  41930.381479    372.915795    533.367257
PC03 -14765.776680  39526.492239   -603.828905   -474.293021
PC04 -39646.627499  14324.931277   -684.171110   -333.923194
PC05  21921.730916  36016.323952    728.445163   -705.439952
PC07 -22562.827155  34924.675902  -8171.494683   -301.535250
PC08  -6424.102530  33314.881780 -24654.728290   -918.666866
PC09   3729.598116  26385.191783  33025.732944    750.914601
PC10 -11481.612379  35953.700057 -19011.004775    -90.774141
PC11 -25059.687077 -12325.607098    -94.710863   -938.459000
PC12 -13469.551729 -18317.582063  16231.522023    780.674562
PC13   3585.705119  40243.589934 -11450.052035    130.720947
PC14 -19037.451613  -3656.304451 -20067.703688     77.074715
PC16 -11041.127315  21818.296226  34421.046315   -686.357036
PC19  23630.796481  -4795.121857  14062.562770    718.692604
PC20  12475.852339  10411.227228  22699.656913   -913.261087
PC21   6686.882497 -20084.094281 -18158.946688   -826.502051
PC22  21403.237222 -17627.749346  -3032.510113   -870.546362
PC23 -11636.289110  17696.053056  18164.696119   -876.819044
PC24 -11191.940141 -21902.820093  13199.569198   -755.349297
PC25 -16351.042316  -1885.249021  22529.975840   -924.474263
PC26   -946.883714 -27780.500978  -2706.155260    952.100061
PC27   3325.993462  17887.732573 -21178.684888    479.130374
PC28 -15981.509989   8520.906691 -21225.035198   -112.557540
PC29  26035.994174   4789.360678   8835.120146    348.972482
PC30  20893.056613  16117.469631  -9119.428652    441.466125
PC32  -6540.640860  20163.903032  18165.731593   -891.134279
PC33 -23601.762233   4874.714387 -14074.742465   -953.905796
PC34 -21259.023866 -15926.999907   8504.061009   -745.763794
PC35  15990.062562  -8912.655187  21072.611094   -429.838980
PC36  16293.349725   2617.620913 -22484.182210   -760.713489
PC37   -256.755147  27671.484389   3508.784093   -863.238953
PC38  -6023.810105  35262.005785 -22189.619485    128.519450
PC39  -8759.020949  22678.136422  34443.706535     28.205802
PC40 -19374.395742  32793.462710 -18227.986134    128.997204
PC41 -21451.901587  17619.360527   2839.385529   -930.748469
PC42 -11921.997561 -10906.631340 -22710.620811   -850.204171
PC43 -26081.843002  -5205.421561  -8408.276224 999999.999999
PC44  -3598.989376 -17806.519836  21169.805737     25.770122
PC45  11462.348191 -17803.364908 -18192.369840    355.492104
PC46  11589.713791  21193.153663 -13936.697384    416.996708
PC60      0.000000      0.000000      0.000000 999999.999999
PE01   1444.060889 -26641.082844  12832.769705  -1040.822686
PE02  -1340.415896  26577.582324 -12939.727004    196.583355
PE03   3499.230341  16758.727799  24141.636151   -395.821034
PE04 -22943.733082  -8559.953204 -16625.086067   -704.595434
PE05 -18275.763114  15241.778548  17600.439968   -306.633098
PE07  29184.370658  -4847.582768   -854.112900   -497.586825
PE08  23187.801802   8156.713927  16482.224035   6050.723369
PE09 -29147.287896   5099.525962   1005.029226   5773.787059
PE11 -19979.583538  -2136.223092 -21728.056771   6357.718108
PE12 -21181.969594 -19620.062864  -6469.777214   5368.695811
PE13  20114.705864   2528.840451  21582.442171    411.632410
PE14 -27390.167340   7263.408515 -13078.318697  -1321.191910
PE15  21269.566533  19526.156818   6548.552747    830.551947
PE18  25259.998311   1543.942611   2633.905706  -1444.192426
PE19   -831.286032 -16993.299158 -24221.353031    197.496701
PE21  13965.527315 -25591.839089  -5159.482206   -647.063387
PE24 -18876.465262   8812.707431  21002.186789   -730.201967
PE25 -14051.415232  25494.023832   5332.465869   -525.911118
PE26   6747.972846 -16544.742155  23610.229834   2177.336155
PE27  18841.566033  -9637.302361 -20702.195327     35.174492
PE30  12175.494122  12732.363357 -23793.618895   3201.524685
PE31 -12611.328323 -11907.869781  23992.205099   -478.055808
PE33  -9884.800844 -25019.162815  12351.805647   -465.484531
PE36  -7128.720901  15931.113167 -23896.192204    444.019870
PG01  17042.612753   5578.911247  19467.286952    766.222934
PG02 -13920.330389 -22543.237173   -989.948241   -574.208711
PG03  18833.249449  -6484.513024  17439.429937    -76.296618
PG04  26483.601241   1361.094324  -1924.732973   -178.434120
PG05 -10129.123907 -12308.873945 -21372.467351    -33.018339
PG06  -4113.245966 -24129.260075  10312.235817     -3.488179
PG07  11526.610282 -10648.354345 -21034.172162     49.698164
PG08  25627.365016   5139.677742  -5529.658828     -9.373864
PG09  21992.261162  -7890.965644 -12711.925753   -320.475382
PG10 -10603.192557  23429.920136   6155.410666    -56.004952
PG11  23164.468655   8588.281248   8818.559962    -31.716264
PG12 -17755.329563   1345.384441  19408.488978      2.402089
PG13 -18968.141886 -13194.144667 -13343.460118     94.346590
PG14  12912.835892 -22754.036434   4551.363474     94.811283
PG15 -26078.115290  -2978.860200  -5515.489270   -171.137312
PG16   7385.790402  13993.668690 -21489.415898   -276.345883
PG17   6365.479449 -14013.303751  22076.694859    389.905249
PG18  -9388.687560  13744.213384 -20688.592906    346.012520
PG19  -2568.617498 -15030.741251  21475.619598    -41.841514
PG20 -15433.021038  20342.461125  -6834.151895    524.812551
PG21  19193.331470  12055.811818  14920.032607     93.425798
PG22  16293.803908   2542.690211  20992.869272   -684.177850
PG23 -16672.723047  20118.218338  -4671.292179    118.106676
PG24 -19021.317679  -9616.990828  15845.323790      2.686994
PG25 -18871.076581  15169.823281  10332.530842     75.365458
PG26   -237.153368  21594.096992 -15335.703344     41.203130
PG27  17221.833833  12297.719671 -16430.670230    -71.330855
PG28  11270.430092 -22826.177204   8467.246037    619.146541
PG29 -22690.390013   5370.048344 -12796.252196   -290.240881
PG30   3301.715108 -20910.764059 -15859.173696   -380.867297
PG31   5424.263880  24612.545015   7507.312192    -98.552456
PG32  -4402.339852  14954.158484  21582.836055     17.790124
PJ01 -30423.730896  28281.423084  12500.856056   -339.585948
PJ02 -30156.861008  25711.979892  19275.489462      1.556305
PJ03 -27121.449575  16745.716915 -22986.796860     -0.523112
PJ07 -25347.242144  33687.559192     32.091033      0.046455
PR01   8224.704981   8196.461170  22710.587953     74.620343
PR02  22809.002112  -4753.840052  10494.188665    466.013937
PR03  20838.851730 -13031.418949  -6888.273327     30.433317
PR04   7197.180578 -13671.047315 -20274.555673     73.065456
PR05 -10418.992104  -6757.741556 -22267.827301     66.088337
PR06 -22896.956350   5874.192233  -9563.585312    192.317450
PR07 -20429.520993  13205.756406   7632.646403    -42.360243
PR08  -7049.253824  13775.939597  20323.041603    -57.252942
PR10  -9263.750311  17254.164536  16286.603884    -66.172044
PR11  -1906.564174  25437.953795   -361.114159      3.640294
PR12   6339.735810  18063.547911 -16821.391804    202.939116
PR13  10997.254622    411.174067 -23032.643055    -50.385772
PR14   9214.983268 -18003.444822 -15533.535647     60.725679
PR15   2095.210076 -25414.966521    781.166961    105.539083
PR16  -7186.153094 -17338.104934  17317.775633    -11.006779
PR17  11199.468060  -4522.679281  22476.338544    397.889505
PR18  -4222.837096 -14519.054979  20546.041808     65.791286
PR19 -16645.319840 -17448.621845   8322.542428   -131.010978
PR20 -20675.968586  -9492.230832 -11475.136548   -432.816718
PR21 -10269.332332   5214.003013 -22756.225985   -185.862715
PR22   5357.258195  15030.700938 -19943.187473    -96.541853
PR23  20249.480052  15483.694028  -1011.990127    364.406076
PR24  20808.925263   8543.352830  12041.844492     30.596913
EOF
